IRIDIUM 106             
1 41917U 17003A   26178.21192372  .00000036  00000+0  58010-5 0  9991
2 41917  86.3959  84.3656 0001968  91.4576 268.6845 14.34217761494644
IRIDIUM 103             
1 41918U 17003B   26178.19923882  .00000026  00000+0  23828-5 0  9995
2 41918  86.3957  84.2705 0002024  77.4404 282.7018 14.34217648494660
IRIDIUM 109             
1 41919U 17003C   26178.20558153  .00000018  00000+0 -66691-6 0  9991
2 41919  86.3959  84.3275 0002113  82.6171 277.5265 14.34217580494632
IRIDIUM 102             
1 41920U 17003D   26178.17386709  .00000107  00000+0  31233-4 0  9995
2 41920  86.3961  84.2643 0002260  85.7294 274.4160 14.34217288494712
IRIDIUM 105             
1 41921U 17003E   26178.13246722 -.00000007  00000+0 -94633-5 0  9997
2 41921  86.3953  52.7115 0002336  80.0362 280.1097 14.34217551496567
IRIDIUM 104             
1 41922U 17003F   26178.18654698  .00000277  00000+0  91730-4 0  9999
2 41922  86.3961  84.3017 0002377  77.3952 282.7510 14.34215380494708
IRIDIUM 114             
1 41923U 17003G   26178.19289650  .00000014  00000+0 -19794-5 0  9994
2 41923  86.3961  84.2821 0002204  80.7371 279.4074 14.34217580494682
IRIDIUM 108             
1 41924U 17003H   26178.15141416  .00000136  00000+0  41414-4 0  9995
2 41924  86.3952  52.5932 0002302  85.9222 274.2237 14.34217436496535
IRIDIUM 112             
1 41925U 17003J   26178.18021089  .00000087  00000+0  24006-4 0  9995
2 41925  86.3956  84.1289 0002320  83.1931 276.9528 14.34218219494702
IRIDIUM 111             
1 41926U 17003K   26178.16752542  .00000077  00000+0  20523-4 0  9998
2 41926  86.3961  84.2052 0002247  83.8116 276.3336 14.34219161494683
IRIDIUM 113             
1 42803U 17039A   26177.93818434  .00000017  00000+0 -85918-6 0  9995
2 42803  86.3977 318.1022 0002129  89.9345 270.2095 14.34217698472584
IRIDIUM 123             
1 42804U 17039B   26178.18896826  .00000079  00000+0  20996-4 0  9995
2 42804  86.3974 349.4552 0002004  91.0688 269.0737 14.34218103471381
IRIDIUM 120             
1 42805U 17039C   26177.93184209  .00000015  00000+0 -17799-5 0  9992
2 42805  86.3967 317.8858 0002166  98.5105 261.6336 14.34217940472570
IRIDIUM 115             
1 42806U 17039D   26178.10221819  .00000308  00000+0  85473-4 0  9999
2 42806  86.4503 317.9446 0002039  95.2859 264.8574 14.43281359475691
IRIDIUM 118             
1 42807U 17039E   26178.01137675  .00000031  00000+0  40293-5 0  9991
2 42807  86.3973 349.5274 0002220  89.6195 270.5255 14.34217505471355
IRIDIUM 117             
1 42808U 17039F   26178.03040370 -.00000017  00000+0 -13166-4 0  9993
2 42808  86.3971 349.4772 0001986  89.8641 270.2782 14.34217331471384
IRIDIUM 126             
1 42809U 17039G   26178.19531159  .00000047  00000+0  97017-5 0  9990
2 42809  86.3974 349.4594 0002158  87.5065 272.6378 14.34217407471388
IRIDIUM 124             
1 42810U 17039H   26178.03603120  .00000294  00000+0  81424-4 0  9991
2 42810  86.4487 286.2406 0002212  95.0848 265.0605 14.43279756476530
IRIDIUM 128             
1 42811U 17039J   26178.11628104  .00000052  00000+0  11386-4 0  9992
2 42811  86.3961  20.9981 0002090  91.7405 268.4030 14.34217856471407
IRIDIUM 121             
1 42812U 17039K   26178.00503383  .00000085  00000+0  23188-4 0  9991
2 42812  86.3975 349.5667 0002189  92.4998 267.6448 14.34217956471234
IRIDIUM 133             
1 42955U 17061A   26178.07822566  .00000064  00000+0  15740-4 0  9990
2 42955  86.3965  21.1320 0002139  89.0977 271.0463 14.34217939456199
IRIDIUM 100             
1 42956U 17061B   26178.07188322  .00000057  00000+0  13154-4 0  9995
2 42956  86.3963  21.0531 0002181  88.6109 271.5336 14.34217671456197
IRIDIUM 122             
1 42957U 17061C   26178.10993828 -.00000013  00000+0 -11803-4 0  9998
2 42957  86.3960  21.0373 0002025  85.8820 274.2608 14.34217419456209
IRIDIUM 129             
1 42958U 17061D   26178.06554084  .00000104  00000+0  29946-4 0  9997
2 42958  86.3965  21.1231 0002379  83.7100 276.4367 14.34217614456213
IRIDIUM 119             
1 42959U 17061E   26178.10359274 -.00000006  00000+0 -90995-5 0  9993
2 42959  86.3960  21.1029 0002065  84.9382 275.2049 14.34216518456239
IRIDIUM 107             
1 42960U 17061F   26178.05285123  .00000229  00000+0  74555-4 0  9998
2 42960  86.3964  21.1455 0001912  88.1242 272.0172 14.34219743456234
IRIDIUM 132             
1 42961U 17061G   26178.05919814  .00000078  00000+0  20903-4 0  9990
2 42961  86.3963  21.1223 0002145  86.7024 273.4417 14.34217810456238
IRIDIUM 136             
1 42962U 17061H   26178.09091377  .00000230  00000+0  75217-4 0  9998
2 42962  86.3965  21.1158 0002216  89.5072 270.6377 14.34219724456253
IRIDIUM 139             
1 42963U 17061J   26178.09725303  .00000017  00000+0 -96941-6 0  9995
2 42963  86.3960  21.1750 0002025  90.4045 269.7382 14.34217673456263
IRIDIUM 125             
1 42964U 17061K   26178.08458551  .00000233  00000+0  76030-4 0  9997
2 42964  86.3968  21.2418 0001898  75.1381 285.0025 14.34218035456273
IRIDIUM 135             
1 43070U 17083A   26177.91915698  .00000028  00000+0  28103-5 0  9992
2 43070  86.3972 317.9460 0002186  92.7195 267.4251 14.34217840445544
